     2.10           G: GLONASS NAV DATA                     RINEX VERSION / TYPE
teqc  2011Oct11     IGN-E (SPG)         20150127 09:00:55UTCPGM / RUN BY / DATE
Linux 2.4.21-27.ELsmp|Opteron|gcc -static|Linux x86_64|=+   COMMENT
                                                            END OF HEADER
 1 15  1 27  7 45  0.0-1.567732542753D-04 0.000000000000D+00 2.700000000000D+04
    2.090972460938D+04-1.738692283630D+00 9.313225746155D-10 0.000000000000D+00
   -3.830611816406D+03 8.424301147461D-01-9.313225746155D-10 1.000000000000D+00
    1.407879199219D+04 2.811859130859D+00-1.862645149231D-09 0.000000000000D+00
 2 15  1 27  7 45  0.0 1.155668869615D-04 1.818989403546D-12 2.700000000000D+04
    2.146074560547D+04 2.806224822998D-01 2.793967723846D-09 0.000000000000D+00
   -1.348257470703D+04-3.479099273682D-01-9.313225746155D-10-4.000000000000D+00
   -2.995508789062D+03 3.540261268616D+00-9.313225746155D-10 0.000000000000D+00
 3 15  1 27  0 45  0.0 3.391690552235D-05 9.094947017729D-13 1.800000000000D+03
   -9.931339843750D+03-7.092847824097D-01 9.313225746155D-10 0.000000000000D+00
    5.430791503906D+03-3.043929100037D+00-9.313225746155D-10 5.000000000000D+00
    2.288990283203D+04 4.128932952881D-01-2.793967723846D-09 0.000000000000D+00
 4 15  1 27  2 45  0.0 1.070173457265D-04 9.094947017729D-13 9.000000000000D+03
   -1.134560742188D+04-2.153329849243D+00-0.000000000000D+00 0.000000000000D+00
    3.685065429688D+03-2.210702896118D+00-1.862645149231D-09 6.000000000000D+00
    2.255277294922D+04-7.228336334229D-01-2.793967723846D-09 0.000000000000D+00
 5 15  1 27  4 15  0.0 1.125037670135D-06 0.000000000000D+00 1.440000000000D+04
   -1.050360742188D+04-2.794221878052D+00-9.313225746155D-10 0.000000000000D+00
    7.103666503906D+03-1.176057815552D+00-1.862645149231D-09 1.000000000000D+00
    2.211851855469D+04-9.477882385254D-01-1.862645149231D-09 0.000000000000D+00
 6 15  1 27  5 45  0.0 6.151106208563D-05 0.000000000000D+00 1.980000000000D+04
   -7.448260253906D+03-3.015472412109D+00-1.862645149231D-09 0.000000000000D+00
    1.052084960938D+04-1.251983642578D-02-9.313225746155D-10-4.000000000000D+00
    2.198569238281D+04-1.017260551453D+00-1.862645149231D-09 0.000000000000D+00
 7 15  1 27  7 45  0.0-1.135608181357D-04-0.000000000000D+00 2.700000000000D+04
   -9.102850097656D+03-2.170262336731D+00-2.793967723846D-09 0.000000000000D+00
    1.505008398438D+04 1.297404289246D+00 0.000000000000D+00 5.000000000000D+00
    1.849069335938D+04-2.128750801086D+00-9.313225746155D-10 0.000000000000D+00
 8 15  1 27  7 45  0.0-2.619903534651D-05 0.000000000000D+00 2.700000000000D+04
    8.135488281250D+03-2.743806838989D+00-9.313225746155D-10 0.000000000000D+00
    7.973410156250D+03 1.482431411743D+00-0.000000000000D+00 6.000000000000D+00
    2.286496728516D+04 4.620351791382D-01-2.793967723846D-09 0.000000000000D+00
 9 15  1 27  1 45  0.0-5.666166543961D-06 9.094947017729D-13 5.400000000000D+03
    1.949116894531D+04-2.005725860596D+00 9.313225746155D-10 0.000000000000D+00
    7.497789062500D+03-2.211217880249D-01 2.793967723846D-09-2.000000000000D+00
   -1.474249365234D+04-2.757490158081D+00 9.313225746155D-10 0.000000000000D+00
10 15  1 27  3 15  0.0 6.549060344696D-06 0.000000000000D+00 1.080000000000D+04
    1.961968701172D+04-2.148046493530D+00 1.862645149231D-09 0.000000000000D+00
    4.181157226562D+02 6.260242462158D-01 1.862645149231D-09-7.000000000000D+00
   -1.626942822266D+04-2.582780838013D+00 9.313225746155D-10 0.000000000000D+00
11 15  1 27  4 15  0.0-1.396983861923D-07 9.094947017729D-13 1.440000000000D+04
    2.091110351562D+04-1.436417579651D+00 1.862645149231D-09 0.000000000000D+00
   -8.497739746094D+03 8.095874786377D-01 9.313225746155D-10 0.000000000000D+00
   -1.196747314453D+04-3.075882911682D+00 9.313225746155D-10 0.000000000000D+00
12 15  1 27  5 45  0.0-7.560476660728D-06 0.000000000000D+00 1.980000000000D+04
    1.619481250000D+04-1.041234016418D+00 1.862645149231D-09 0.000000000000D+00
   -1.501604687500D+04 1.395648956299D+00 0.000000000000D+00-1.000000000000D+00
   -1.265034423828D+04-3.009035110474D+00 9.313225746155D-10 0.000000000000D+00
13 15  1 27  6 15  0.0-4.695197567344D-04-9.094947017729D-13 2.160000000000D+04
    1.078967089844D+04-2.680711746216D-01 1.862645149231D-09 0.000000000000D+00
   -2.308178466797D+04 6.897544860840D-02 0.000000000000D+00-2.000000000000D+00
   -1.262525390625D+03-3.590240478516D+00 0.000000000000D+00 0.000000000000D+00
14 15  1 27  6 45  0.0 1.241983845830D-04 3.637978807092D-12 2.340000000000D+04
    2.158392578125D+03 2.013931274414D-01 0.000000000000D+00 0.000000000000D+00
   -2.322004638672D+04-1.411104202271D+00-0.000000000000D+00-7.000000000000D+00
    1.024301953125D+04-3.242159843445D+00-0.000000000000D+00 0.000000000000D+00
15 15  1 27  7 15  0.0 3.781821578741D-05 9.094947017729D-13 2.520000000000D+04
   -5.682275878906D+03 2.494106292725D-01-0.000000000000D+00 0.000000000000D+00
   -1.675637451172D+04-2.513364791870D+00-0.000000000000D+00 0.000000000000D+00
    1.843463330078D+04-2.199029922485D+00-9.313225746155D-10 0.000000000000D+00
16 15  1 27  0 15  0.0-2.382043749094D-05 9.094947017729D-13 0.000000000000D+00
    1.637701025391D+04-1.601763725281D+00-0.000000000000D+00 0.000000000000D+00
    1.424966601562D+04-8.932390213013D-01 2.793967723846D-09-1.000000000000D+00
   -1.335818847656D+04-2.930010795593D+00 9.313225746155D-10 0.000000000000D+00
17 15  1 27  7 45  0.0 1.467205584049D-04 9.094947017729D-13 2.700000000000D+04
   -2.871288085938D+03 2.450289726257D+00-0.000000000000D+00 0.000000000000D+00
   -1.353966845703D+04 1.611515045166D+00-0.000000000000D+00 4.000000000000D+00
    2.146415625000D+04 1.342865943909D+00-1.862645149231D-09 0.000000000000D+00
18 15  1 26 23 45  0.0 3.531854599714D-05 1.818989403546D-12 8.460000000000D+04
   -9.959387695312D+03-2.142356872559D+00 9.313225746155D-10 0.000000000000D+00
    1.490320263672D+04 1.266593933105D+00 9.313225746155D-10-3.000000000000D+00
    1.819485937500D+04-2.205938339233D+00-2.793967723846D-09 0.000000000000D+00
19 15  1 27  1 45  0.0-1.167356967926D-04-9.094947017729D-13 5.400000000000D+03
   -5.471806152344D+03-9.128866195679D-01 9.313225746155D-10 0.000000000000D+00
    2.054779638672D+04 1.707672119141D+00 0.000000000000D+00 3.000000000000D+00
    1.408997167969D+04-2.845897674561D+00-2.793967723846D-09 0.000000000000D+00
20 15  1 27  3 45  0.0-1.551741734147D-04-9.094947017729D-13 1.260000000000D+04
    2.243314453125D+03 1.438970565796D-01 9.313225746155D-10 0.000000000000D+00
    2.434633300781D+04 1.015630722046D+00 0.000000000000D+00 2.000000000000D+00
    7.372888671875D+03-3.396986007690D+00-1.862645149231D-09 0.000000000000D+00
21 15  1 27  5 45  0.0-3.927387297153D-06 1.818989403546D-12 1.980000000000D+04
    1.122651708984D+04 4.233169555664D-02 9.313225746155D-10 0.000000000000D+00
    2.281828710938D+04-2.988233566284D-01-0.000000000000D+00 4.000000000000D+00
   -1.773453613281D+03-3.570299148560D+00-9.313225746155D-10 0.000000000000D+00
22 15  1 27  7 45  0.0 1.511173322797D-04 1.818989403546D-12 2.700000000000D+04
    1.754862744141D+04-1.000026702881D+00 9.313225746155D-10 0.000000000000D+00
    1.602610937500D+04-8.362407684326D-01-0.000000000000D+00-3.000000000000D+00
   -9.441733398438D+03-3.263273239136D+00-0.000000000000D+00 0.000000000000D+00
23 15  1 27  7 45  0.0-7.062070071697D-04-3.637978807092D-12 2.700000000000D+04
    2.220264160156D+04 1.130792617798D+00 9.313225746155D-10 0.000000000000D+00
    8.849094726562D+03 4.915447235107D-01-9.313225746155D-10 3.000000000000D+00
    8.903394042969D+03-3.307550430298D+00-1.862645149231D-09 0.000000000000D+00
24 15  1 27  7 45  0.0-1.204954460263D-04-0.000000000000D+00 2.700000000000D+04
    1.421108398438D+04 2.491858482361D+00 0.000000000000D+00 0.000000000000D+00
   -2.699475585938D+03 1.447016716003D+00-9.313225746155D-10 2.000000000000D+00
    2.099223583984D+04-1.499087333679D+00-2.793967723846D-09 0.000000000000D+00
 8 15  1 27  8 15  0.0-2.619810402393D-05 0.000000000000D+00 2.880000000000D+04
    3.383717773438D+03-2.492810249329D+00-1.862645149231D-09 0.000000000000D+00
    1.100668554688D+04 1.859935760498D+00 0.000000000000D+00 6.000000000000D+00
    2.280615917969D+04-5.268993377686D-01-2.793967723846D-09 0.000000000000D+00
 1 15  1 27  8 15  0.0-1.567732542753D-04 0.000000000000D+00 2.880000000000D+04
    1.742556054688D+04-2.086374282837D+00 0.000000000000D+00 0.000000000000D+00
   -1.772462402344D+03 1.448071479797D+00-9.313225746155D-10 1.000000000000D+00
    1.852970361328D+04 2.101469993591D+00-2.793967723846D-09 0.000000000000D+00
 2 15  1 27  8 15  0.0 1.155706122518D-04 1.818989403546D-12 2.880000000000D+04
    2.126777246094D+04-4.724521636963D-01 1.862645149231D-09 0.000000000000D+00
   -1.370129492188D+04 1.390857696533D-01-9.313225746155D-10-4.000000000000D+00
    3.410389648438D+03 3.531267166138D+00-9.313225746155D-10 0.000000000000D+00
17 15  1 27  8 15  0.0 1.467233523726D-04 9.094947017729D-13 2.880000000000D+04
    1.940777343750D+03 2.856607437134D+00-0.000000000000D+00 0.000000000000D+00
   -1.087450341797D+04 1.317067146301D+00-0.000000000000D+00 4.000000000000D+00
    2.302354052734D+04 3.785190582275D-01-1.862645149231D-09 0.000000000000D+00
23 15  1 27  8 15  0.0-7.062144577503D-04-3.637978807092D-12 2.880000000000D+04
    2.361991699219D+04 4.134321212769D-01 9.313225746155D-10 0.000000000000D+00
    9.244996093750D+03-2.239227294922D-02-9.313225746155D-10 3.000000000000D+00
    2.682410644531D+03-3.559749603271D+00-9.313225746155D-10 0.000000000000D+00
24 15  1 27  8 15  0.0-1.204963773489D-04-0.000000000000D+00 2.880000000000D+04
    1.851729101562D+04 2.243352890015D+00 0.000000000000D+00 0.000000000000D+00
   -6.116909179688D+02 8.718910217285D-01-9.313225746155D-10 2.000000000000D+00
    1.751604589844D+04-2.338191986084D+00-2.793967723846D-09 0.000000000000D+00
